[
  "FORMOSAT-2 (ROCSAT 2)   \r\n1 28254U 04018A   26175.16658865 -.00000212  00000+0 -11285-3 0  9996\r\n2 28254  98.8460 142.4357 0001171 342.6059  28.4956 14.01259845129738\r\n",
  "FORMOSAT-3 FM6          \r\n1 29047U 06011A   26174.74150117  .00000348  00000+0  14488-3 0  9998\r\n2 29047  71.9781 297.9156 0049511 227.7902 131.9029 14.31401955 55340\r\n",
  "FORMOSAT-3 FM1          \r\n1 29048U 06011B   26176.13307214  .00000318  00000+0  13451-3 0  9992\r\n2 29048  71.9642 203.4731 0042384 189.2914 170.7444 14.31395053 57912\r\n",
  "FORMOSAT-3 FM5          \r\n1 29049U 06011C   26175.97355576  .00000303  00000+0  12910-3 0  9991\r\n2 29049  72.0189  27.9740 0034283 195.9828 164.0232 14.31409235 53787\r\n",
  "FORMOSAT-3 FM3          \r\n1 29050U 06011D   26175.07225706  .00000926  00000+0  17217-3 0  9991\r\n2 29050  72.0140 297.3923 0044957 272.6703  86.9308 14.66971387 77384\r\n",
  "FORMOSAT-3 FM4          \r\n1 29051U 06011E   26174.74519487  .00000220  00000+0  96033-4 0  9998\r\n2 29051  72.0046 288.0209 0064324  78.8833 281.9528 14.31543087 56207\r\n",
  "FORMOSAT-3 FM2          \r\n1 29052U 06011F   26175.93156237  .00000346  00000+0  14417-3 0  9995\r\n2 29052  72.0330   6.4347 0038112 148.9744 211.3657 14.31622563 53894\r\n",
  "PACE                    \r\n1 40022U 14033N   26175.94453159  .00005269  00000+0  32061-3 0  9996\r\n2 40022  98.1243 181.2908 0006303 176.2646 183.8630 15.10889773654205\r\n",
  "FORMOSAT-5              \r\n1 42920U 17049A   26176.19056631  .00000125  00000+0  42675-4 0  9996\r\n2 42920  98.2252 251.3225 0012494  62.1572 298.0887 14.50901394467836\r\n",
  "FORMOSAT 7-3            \r\n1 44343U 19036E   26176.18041610  .00004313  00000+0  23885-3 0  9999\r\n2 44343  23.9979 123.5218 0000785  36.5043 323.5514 15.09846412384459\r\n",
  "FORMOSAT 7-1            \r\n1 44349U 19036L   26174.78130427  .00002163  00000+0  15970-3 0  9991\r\n2 44349  23.9990 347.9379 0000438 251.1336 108.9117 14.96529519385640\r\n",
  "FORMOSAT 7-4            \r\n1 44350U 19036M   26175.93731611  .00002474  00000+0  18643-3 0  9998\r\n2 44350  23.9990  42.2492 0000879 285.7480  74.2924 14.96527255385236\r\n",
  "FORMOSAT 7-2            \r\n1 44351U 19036N   26175.89298091  .00002379  00000+0  17830-3 0  9995\r\n2 44351  23.9981  96.8623 0000350 275.1578  84.8883 14.96526304384743\r\n",
  "FORMOSAT 7-6            \r\n1 44353U 19036Q   26174.95920841  .00002149  00000+0  15851-3 0  9994\r\n2 44353  23.9979 283.9762 0001111 159.5941 200.4605 14.96536047382831\r\n",
  "FORMOSAT 7-5            \r\n1 44358U 19036V   26174.80308973  .00001836  00000+0  13164-3 0  9996\r\n2 44358  23.9971 223.7781 0000120 163.1840 196.8664 14.96538122383345\r\n",
  "FORMOSAT-7R (TRITON)    \r\n1 58017U 23155B   26176.15767369  .00001448  00000+0  15166-3 0  9991\r\n2 58017  97.8356 257.4954 0002503  78.0815 282.0684 14.91138613147410\r\n",
  "NIGHTJAR                \r\n1 60535U 24149BV  26176.13556889  .00003073  00000+0  25811-3 0  9998\r\n2 60535  97.6831 252.7313 0000809 107.0694 253.0618 14.99051960144066\r\n",
  "IRIS-F3                 \r\n1 62619U 25009L   26175.13222550  .00004928  00000+0  18812-3 0  9996\r\n2 62619  97.4045 255.9188 0004903 305.1990  54.8790 15.27103576 79888\r\n",
  "IRIS-F2                 \r\n1 62684U 25009CD  26176.19650836  .00016806  00000+0  63875-3 0  9994\r\n2 62684  97.3894 255.8926 0004168 331.9954  28.1060 15.26858496137684\r\n",
  "FORMOSAT-8A             \r\n1 66666U 25276A   26176.14004297  .00001483  00000+0  12177-3 0  9997\r\n2 66666  97.6551 250.2666 0003450 216.0062 144.0930 15.00693166 31250\r\n",
  "LILIUM-2                \r\n1 66679U 25276P   26176.14982557  .00003212  00000+0  16121-3 0  9990\r\n2 66679  97.4153 249.0338 0005541 355.3437   4.7744 15.18007274 31600\r\n",
  "FLOCK 4H-5              \r\n1 66708U 25276AU  26176.13599920  .00006204  00000+0  28550-3 0  9993\r\n2 66708  97.4180 249.7159 0000793  85.6240 274.5086 15.20679188 31642\r\n",
  "BLACK KITE-1            \r\n1 66741U 25276CD  26175.15333107  .00007381  00000+0  33906-3 0  9992\r\n2 66741  97.4244 248.7742 0004562 339.6410  20.4643 15.20667408 28786\r\n",
  "T.MICROSAT-1            \r\n1 66766U 25276DE  26176.16892272  .00006308  00000+0  28844-3 0  9997\r\n2 66766  97.4163 249.7716 0002073 116.1024 244.0425 15.20890307 31657\r\n",
  "LILIUM-3                \r\n1 66770U 25276DJ  26176.19273875  .00002306  00000+0  11171-3 0  9996\r\n2 66770  97.4245 249.8192 0001469 170.5749 189.5514 15.19540705 31641\r\n",
  "T.MICROSAT-2            \r\n1 68433U 26067T   26175.11659113  .00004497  00000+0  22792-3 0  9991\r\n2 68433  97.4568 133.3838 0007176  50.8244 309.3626 15.17450917 12987\r\n",
  "PARUS-6U1               \r\n1 68456U 26067AS  26175.11191134  .00004975  00000+0  25086-3 0  9990\r\n2 68456  97.4549 133.3687 0007072  53.4995 306.6889 15.17578800 12983\r\n",
  "BLACK KITE-2            \r\n1 68474U 26067BL  26175.11956313  .00001852  00000+0  18537-3 0  9992\r\n2 68474  97.7552 133.3054 0001450 167.7984 192.3270 14.92609021 12761\r\n",
  "PEARL-1B                \r\n1 68980U 26100A   26176.16646780  .00001859  00000+0  19544-3 0  9998\r\n2 68980  97.7360  73.3765 0008683 114.9845 245.2276 14.90592014  7878\r\n",
  "PEARL-1A                \r\n1 68990U 26100L   26175.95018295  .00001719  00000+0  17940-3 0  9992\r\n2 68990  97.7306  73.1708 0006421 127.1677 233.0128 14.90999111  7859\r\n"
]